First Name,Last Name,Email,Phone Number,Address,City,State,Zip Code
Christina,Lee,erin28@example.com,807.518.3030x040,943 Moore Mill,Juarezchester,Wyoming,37063
Meghan,Potter,coreyparsons@example.com,849.320.6131,321 Felicia Mountain Suite 079,Liuport,California,75581
Ashley,Griffith,pshannon@example.org,317-744-5067x6966,3461 Robin Cliff,Port Patricktown,Mississippi,68467
Frank,Smith,hsmith@example.net,986-895-0108,3812 Matthew Ways Apt. 752,Watkinsbury,Kentucky,44890
Emily,Jackson,tcarter@example.com,512.379.0298,265 George Walk,Davishaven,Idaho,17516
Jose,Stein,khernandez@example.org,242-660-5422x720,400 Lisa Fort Apt. 663,Port Michaelberg,Michigan,19994
Judith,Ayers,vcole@example.org,+1-354-900-6368,49456 Alexis Light Apt. 287,East Gabrielshire,Indiana,99169
Cindy,Martin,arowe@example.com,316-696-3898x60584,803 Kelley Branch Suite 165,Lake Patricia,South Dakota,17016
Brian,Cruz,kbriggs@example.org,227.552.1179,912 Garcia Spurs,Shieldsberg,Pennsylvania,54695
Victor,Gordon,hpeterson@example.com,581.235.2507x4665,114 Sarah Cliff Apt. 558,Brittanymouth,South Carolina,13540
Jennifer,Lee,zlee@example.net,878-622-0038x9895,3932 Sanford Terrace,North Zacharyview,Oklahoma,16308
Kristin,Stewart,thompsonlynn@example.com,+1-987-949-4969,0626 Phillip Flats Suite 193,Stevensport,South Dakota,26981
Thomas,Walters,kathryncruz@example.com,969-449-4813,50198 Lisa Mall,South Troymouth,Georgia,49206
Angela,Holland,whitedavid@example.org,(252)544-1512,7031 Andrea Curve Suite 474,West Katherinefort,Utah,99179
Garrett,Gutierrez,jennifer67@example.net,569-392-0574,9821 Jay Station,Cochranville,Idaho,38195
Alice,Martin,zperez@example.org,+1-778-739-8532x386,26460 Renee Shoals Suite 762,Katelynton,Mississippi,50271
Jeffrey,Rodriguez,ramirezjill@example.org,001-401-797-7033x240,9940 Houston Meadows Apt. 934,North Vanessaside,Nevada,79242
Angela,Brock,juanharrison@example.net,(891)352-9455x7147,833 Johns Knoll Apt. 989,Matthewside,Pennsylvania,24593
Erika,Ruiz,qsanchez@example.net,784.680.1736x0944,8175 Jacqueline Trace,North Brendatown,Pennsylvania,70103
Marcus,Parker,katrina13@example.net,333.638.6247,49660 Donna Parkway Apt. 860,East Jerome,California,97245
Kimberly,Norton,bliu@example.net,793.278.9846x8868,1020 James Shores,South Julieville,Missouri,41014
Barbara,Holmes,brian01@example.net,581.560.6560,24391 Black Tunnel Apt. 818,West Paulport,Connecticut,83090
Felicia,Stephens,dianeolson@example.net,(908)299-4004x37522,35690 Christopher Unions,Anthonybury,North Carolina,99252
Amanda,Ross,westdiane@example.net,306-719-8399,773 Hansen Lights,Victoriaport,North Dakota,46836
James,Wilson,owensjoel@example.com,+1-933-346-1303,9036 Ewing Summit,South Debbieview,South Dakota,02676
Jason,Arellano,nelsonjessica@example.net,(307)813-3253,17997 Burns Rue Suite 748,Bartonville,Virginia,72066
Paul,Hampton,ymartin@example.org,244-764-1683x95067,566 Nunez Mission Apt. 640,Robinsonchester,Connecticut,39404
Kevin,Miles,wmcdonald@example.com,887.586.2403x3106,566 Bailey Landing,New Timothy,Massachusetts,64223
Dalton,Bauer,lewisthomas@example.net,(769)605-0054x055,19067 Ryan Turnpike,West Cheryl,New York,66309
Laura,Keith,uprice@example.org,376.226.9446,66375 Rebecca Fall,West Emily,California,01282
Amanda,Stewart,pmurphy@example.net,001-905-886-4486x334,4970 Bradley Ridge Suite 180,Robbinsburgh,Florida,37361
Gary,Yu,brandonfisher@example.net,5618433340,995 Harris Hollow,Port Craighaven,Connecticut,55394
Donna,Gates,john97@example.org,369-835-1221,302 Michael Cliffs,New Hannah,Washington,34858
Seth,Wilson,ulee@example.net,8169944307,0474 Michelle Mill,Katherineport,Florida,63013
Paul,Shelton,gnavarro@example.net,001-443-667-9700,27118 Saunders Mill Apt. 916,East Anthony,Wyoming,86191
James,Rodriguez,austin97@example.net,+1-385-765-6791x1800,742 Wright Islands,Josephshire,Arkansas,78425
Sean,Mora,daniel35@example.com,4307786605,456 Zimmerman Square,Gibbston,New Jersey,88082
Susan,Harrell,benjamin52@example.org,309-924-0295x8294,309 Scott Lake Apt. 474,Wrightshire,Maine,33713
Cameron,Rodgers,christensenamanda@example.net,001-710-222-6707,100 Johnson Brooks,Baileytown,North Dakota,62183
Sandra,Shannon,cnguyen@example.net,766-978-9958,7519 Kathleen Villages,Ninafort,Maryland,99389
Angelica,Mcneil,juliejensen@example.org,+1-908-532-8741x944,6055 Savannah Crossing Suite 133,North Miguelbury,Arizona,03750
Megan,Martinez,ycurry@example.org,(661)882-0784,84359 Laura Wall Apt. 237,West Tracyborough,North Dakota,94089
Teresa,Weeks,xdavis@example.org,832.960.2791x9420,34102 Johnson Springs,Anthonyberg,Delaware,85511
Elizabeth,Turner,paul66@example.com,(893)832-3477x433,7341 Jordan Drive,South Tonya,New Hampshire,19486
Mary,Johnson,jenniferhernandez@example.net,001-956-881-3047x656,17145 Anthony Roads Suite 226,New Thomasville,Wyoming,78572
Rachel,Gutierrez,bennettleon@example.net,610-905-4189x41442,18266 Garcia Track,Jerryfurt,North Carolina,43080
Joshua,Doyle,matthewball@example.org,+1-620-971-4660x1585,490 Keller Plaza Suite 238,Jayhaven,Florida,06786
Kathryn,Parks,ramireznorma@example.org,(303)318-9819x7565,896 Samantha Mountains Suite 241,Lake Aaron,Wyoming,17472
Denise,Huynh,crossangela@example.org,4629072001,0039 Stephanie Fords Apt. 234,North Tony,North Carolina,84794
Tyler,Lopez,erica91@example.com,+1-950-660-7887x32888,0767 Justin Prairie Suite 137,South Michaelfort,Wisconsin,69676
James,Ingram,lschmidt@example.org,548-670-5783,97507 Howard Plains,Daniellemouth,Pennsylvania,79503
Raymond,Brown,zjones@example.org,825-813-5316x2534,806 Sherri Row,Port Maureenberg,Tennessee,71633
Grace,Smith,alexander79@example.org,(213)473-0099x690,761 Martinez Stravenue,Herreratown,Texas,80465
Jonathan,Wright,danielpadilla@example.org,001-548-791-0218,38916 Davis Meadow,North Kelly,Wisconsin,49727
Samuel,Alexander,wmendez@example.org,(643)606-5566x9197,487 Daniel Pine,West Ashleytown,Colorado,74020
Lynn,Nelson,jenniferkeith@example.org,+1-401-914-3156x77794,49833 Jose Valley Suite 272,East Philip,Vermont,43804
Isabel,Davidson,vwilliams@example.com,(894)696-3200,886 Becker Glens,South Michaelburgh,Nebraska,95713
Victor,Weaver,jessica76@example.net,+1-486-902-1069x710,80520 Wanda Shoal,Carriechester,Virginia,04537
Laurie,Johnson,jane23@example.org,344-391-0322x307,2388 Hill View Suite 958,West Adam,Ohio,25150
Katherine,Larsen,navarrojohn@example.net,741-721-4024,4679 Stephanie Burgs Suite 905,Mcdanielchester,Kansas,18133
Anita,Jones,morrischristine@example.com,568.503.5431x1968,611 Leah Fort,Houseberg,North Carolina,12330
Katie,Kemp,turnerjesus@example.com,605-336-8998x878,76419 Mckenzie Ferry,West Jessica,Wyoming,44759
Michael,Knight,amber79@example.org,+1-246-653-1105x742,7182 Christopher Spur,Rachelfurt,Utah,78791
Ryan,Khan,james91@example.org,001-982-548-8569x25210,05116 Jones Path,New Tina,Nebraska,03702
Julie,Leonard,martha15@example.org,001-367-553-3690x005,9960 Burnett Stream Apt. 770,Zunigashire,Alaska,38928
Jason,Atkinson,andrew70@example.org,926.316.3192x4715,991 David Orchard,Padillamouth,South Carolina,40026
Adam,Hicks,amanda90@example.org,+1-763-767-1870,2936 Conley Forks Suite 223,West Matthew,Arizona,06396
John,Fleming,hcarroll@example.com,001-297-915-4360,74005 Kyle Row Suite 037,New Jessicaland,Georgia,86909
Alexandra,Cooper,nholt@example.net,238-797-6095x974,3713 Matthews Shoal Suite 255,New Paulhaven,Washington,33885
Carl,Castro,ebooth@example.net,(863)632-9578,24341 Alvarado Freeway Apt. 295,Angelachester,Alaska,16298
Tracey,Farmer,brittany02@example.org,+1-696-574-5502x1299,37994 Harrison Views Apt. 718,Kristenmouth,North Carolina,38852
Jeremy,Bonilla,nancyfinley@example.com,+1-641-326-4216x937,04929 Meyer Field,Daviesmouth,Georgia,28530
Jennifer,Hunt,christopheryoung@example.net,(799)272-5346,73128 Lopez Road,West Joannaside,West Virginia,74129
Bruce,Wiley,steven42@example.com,974.751.9958,9360 Catherine Islands Suite 931,New Mariaton,Washington,23986
Tara,Lee,flynnjulie@example.com,964-331-4591x558,1286 Tyler Locks Apt. 668,Lindseyfurt,North Carolina,84492
Michael,Dawson,jessicasmith@example.com,599-879-5953,866 Michele Bypass Apt. 788,Port Robert,Ohio,08945
Cindy,Carroll,sean96@example.net,+1-997-237-7944x434,05159 Romero Oval,Herreraborough,Pennsylvania,50119
Laura,Thomas,evelynrussell@example.net,721-293-5191,986 Ponce Coves,Wrightborough,Hawaii,79226
Ronald,Tate,christine47@example.net,+1-683-553-9446x5893,096 Kimberly Stravenue Suite 559,Kathleenmouth,Massachusetts,79823
Joshua,Maddox,cruzbonnie@example.net,(338)222-8513,49480 Crane Junctions,Tinaland,Illinois,24289
Kathy,Schmidt,ldavis@example.com,894.668.0266x34996,797 Robinson Burg,East Tammyhaven,Wyoming,79583
Christian,Anderson,amber23@example.com,+1-887-653-6289x46213,325 Michael Extensions Suite 878,Port Kathleen,Nebraska,54650
Cassandra,Ramirez,martinezpatrick@example.org,(664)901-1307,2017 John Prairie Apt. 619,Pageton,Arizona,10072
Levi,Nguyen,wcastillo@example.com,(503)544-5248,4651 Terri Parkway Suite 722,Troyfort,Massachusetts,84821
Roger,Weiss,roberttaylor@example.com,+1-331-991-6007,5562 Matthew Points,Williamsborough,South Carolina,47957
Monique,Fitzpatrick,anthonytran@example.com,500-546-9562x887,38500 Hall Center Suite 397,Williamton,Delaware,17168
Peter,Johnston,baileymichael@example.com,001-967-871-3189,39198 James Landing Suite 529,Tannerbury,California,71841
Kelly,Dennis,bensonbonnie@example.net,384.770.1739x178,838 Michael Cliff Apt. 260,South Melissabury,New York,02311
Abigail,Johnson,jameshopkins@example.net,001-990-649-5891x15987,062 Johnson Wall,South Patrick,Georgia,23792
Daniel,Carlson,susan12@example.com,(932)893-8746x6753,9787 Christopher Crossing Suite 683,East Vickie,Delaware,10240
Thomas,Walker,lyonsnathan@example.com,001-969-330-3349x582,725 Hayes Rapids Apt. 297,Lake Amandaview,Nebraska,82914
Mario,Rowe,mitchell14@example.net,659-659-3881x5540,10438 Nathan Meadows Suite 810,East Tyler,Arkansas,78479
Antonio,Torres,ppatel@example.com,745.814.0321x9977,477 Alyssa Junction Apt. 488,South Lisaberg,Michigan,55168
Christine,Stone,lthomas@example.com,+1-634-904-6101,8144 Taylor Canyon,Petersland,Missouri,77067
Amber,Wilson,paulpennington@example.org,(239)824-9007,8118 Rachel Prairie Apt. 001,South Andrea,North Carolina,17818
Daniel,Alvarez,charles40@example.org,(670)670-9871x894,5662 Cathy Burg,Jeremyburgh,Nebraska,07012
Susan,Brewer,hayers@example.net,001-826-670-8811x84167,78889 Melissa Port Apt. 018,West Amandafurt,New Jersey,86479
Holly,Combs,steven33@example.com,602.829.6960x31934,15174 Carl Island Apt. 545,Yolandamouth,South Carolina,19113
Christopher,Young,annaflores@example.com,(891)441-1904x90606,996 Linda Courts Apt. 745,Lake Shelby,Florida,60054
Ryan,Steele,danielvasquez@example.org,396.576.5706x67436,7681 Kelly Lodge Suite 810,Wilsonchester,Delaware,67728
